{
  "norad_id": 57710,
  "name": "STARLINK-30335",
  "history": [
    {
      "epoch": "2026-03-28T18:41:20.696064Z",
      "apogee_km": 483.89741652076737,
      "perigee_km": 482.16867611589805,
      "latitude_deg": 3.092864824950368e-05,
      "longitude_deg": -96.5715698332365,
      "height_km": 483.15755935871084,
      "semi_major_axis_km": 6861.170046318332,
      "eccentricity": 0.00012598,
      "inclination_deg": 43.003,
      "raan_deg": 9.9589,
      "arg_perigee_deg": 246.2778,
      "mean_anomaly_deg": 113.7942,
      "mean_motion_rev_day": 15.2758536
    }
  ]
}